HIERARCHY
ROOT Hips
{
	OFFSET -0.001795 -0.223333 0.028219
	CHANNELS 6 Xposition Yposition Zposition Zrotation Yrotation Xrotation 
	JOINT LeftUpLeg
	{
		OFFSET 0.069520 -0.091406 -0.006815
		CHANNELS 3 Zrotation Yrotation Xrotation
		JOINT LeftLeg
		{
			OFFSET 0.034277 -0.375199 -0.004496
			CHANNELS 3 Zrotation Yrotation Xrotation
			JOINT LeftFoot
			{
				OFFSET -0.013596 -0.397961 -0.043693
				CHANNELS 3 Zrotation Yrotation Xrotation
				JOINT LeftToe
				{
					OFFSET 0.026358 -0.055791 0.119288
					CHANNELS 3 Zrotation Yrotation Xrotation
					End Site
					{
						OFFSET 0.000000 0.000000 0.000000
					}
				}
			}
		}
	}
	JOINT RightUpLeg
	{
		OFFSET -0.067670 -0.090522 -0.004320
		CHANNELS 3 Zrotation Yrotation Xrotation
		JOINT RightLeg
		{
			OFFSET -0.038290 -0.382569 -0.008850
			CHANNELS 3 Zrotation Yrotation Xrotation
			JOINT RightFoot
			{
				OFFSET 0.015774 -0.398415 -0.042312
				CHANNELS 3 Zrotation Yrotation Xrotation
				JOINT RightToe
				{
					OFFSET -0.025372 -0.048144 0.123348
					CHANNELS 3 Zrotation Yrotation Xrotation
					End Site
					{
						OFFSET 0.000000 0.000000 0.000000
					}
				}
			}
		}
	}
	JOINT Spine
	{
		OFFSET -0.002533 0.108963 -0.026696
		CHANNELS 3 Zrotation Yrotation Xrotation
		JOINT Spine1
		{
			OFFSET 0.005487 0.135180 0.001092
			CHANNELS 3 Zrotation Yrotation Xrotation
			JOINT Spine2
			{
				OFFSET 0.001457 0.052922 0.025425
				CHANNELS 3 Zrotation Yrotation Xrotation
				JOINT Neck
				{
					OFFSET -0.002778 0.213870 -0.042857
					CHANNELS 3 Zrotation Yrotation Xrotation
					JOINT Head
					{
						OFFSET 0.005152 0.064970 0.051349
						CHANNELS 3 Zrotation Yrotation Xrotation
						End Site
						{
							OFFSET 0.000000 0.000000 0.000000
						}
					}
				}
				JOINT LeftShoulder
				{
					OFFSET 0.078845 0.121749 -0.034090
					CHANNELS 3 Zrotation Yrotation Xrotation
					JOINT LeftArm
					{
						OFFSET 0.090977 0.030469 -0.008868
						CHANNELS 3 Zrotation Yrotation Xrotation
						JOINT LeftForeArm
						{
							OFFSET 0.259612 -0.012772 -0.027456
							CHANNELS 3 Zrotation Yrotation Xrotation
							JOINT LeftHand
							{
								OFFSET 0.249234 0.008986 -0.001171
								CHANNELS 3 Zrotation Yrotation Xrotation
								End Site
								{
									OFFSET 0.000000 0.000000 0.000000
								}
							}
						}
					}
				}
				JOINT RightShoulder
				{
					OFFSET -0.081759 0.118833 -0.038615
					CHANNELS 3 Zrotation Yrotation Xrotation
					JOINT RightArm
					{
						OFFSET -0.096012 0.032551 -0.009143
						CHANNELS 3 Zrotation Yrotation Xrotation
						JOINT RightForeArm
						{
							OFFSET -0.253742 -0.013329 -0.021401
							CHANNELS 3 Zrotation Yrotation Xrotation
							JOINT RightHand
							{
								OFFSET -0.255298 0.007772 -0.005559
								CHANNELS 3 Zrotation Yrotation Xrotation
								End Site
								{
									OFFSET 0.000000 0.000000 0.000000
								}
							}
						}
					}
				}
			}
		}
	}
}
MOTION
Frames: 68
Frame Time: 0.050000
0.000000 0.911197 0.000000 0.902206 -0.393699 -17.589788 0.895994 1.461844 17.184785 -1.377576 0.354522 -8.997772 5.805087 13.268720 6.516757 0.000000 0.000000 0.000000 -0.845339 -1.345838 14.654456 4.517045 -0.490794 2.146118 -8.021723 -19.639392 -2.677601 0.000000 0.000000 0.000000 5.840224 -3.304846 38.282628 -34.677017 -2.605386 -79.525230 12.841783 -28.438549 73.847536 1.143455 -9.499376 -30.567495 0.000000 0.000000 0.000000 -47.490103 -11.243065 24.254687 -25.484861 -21.228256 -9.782329 -4.650109 -30.210905 1.690760 0.000000 0.000000 0.000000 35.417475 9.934581 -2.982303 37.679747 6.784054 -8.972818 10.158198 25.710603 3.132815 0.000000 0.000000 0.000000 
0.000122 0.906868 -0.002936 0.442995 0.686229 -17.894741 1.408964 1.311497 16.922402 -1.570268 0.343104 -8.519902 5.609634 12.614350 4.652023 0.000000 0.000000 0.000000 -0.192782 -1.513542 15.041270 4.266111 -0.472980 1.845571 -8.426094 -20.893392 -3.693017 0.000000 0.000000 0.000000 6.488840 -3.743165 39.182009 -40.605968 -4.139147 -80.710389 14.696365 -34.135044 74.580836 1.516278 -11.075573 -34.275102 0.000000 0.000000 0.000000 -47.066279 -10.532141 25.827316 -26.076077 -23.305487 -10.327438 -3.371909 -29.448108 1.199287 0.000000 0.000000 0.000000 33.013011 10.986536 -4.445059 41.115928 5.089790 -9.816569 10.138694 27.568886 3.242956 0.000000 0.000000 0.000000 
0.000246 0.904338 -0.005071 1.108379 2.145712 -19.556446 1.500025 1.223361 16.732290 -3.219058 0.381149 -5.255072 5.264653 11.606738 2.854354 0.000000 0.000000 0.000000 -1.309217 -1.477336 15.523743 4.777450 -0.566331 4.354943 -8.824939 -22.300684 -4.885232 0.000000 0.000000 0.000000 6.306829 -4.082816 41.497183 -46.406749 -4.174846 -79.177656 17.526697 -38.636838 70.466909 0.319479 -11.239150 -34.701889 0.000000 0.000000 0.000000 -45.628722 -11.509222 27.732536 -27.161048 -22.812929 -10.052627 -4.096023 -30.082370 1.106858 0.000000 0.000000 0.000000 30.770718 10.723457 -7.428174 42.587862 2.446678 -9.671182 11.990282 27.505016 3.265172 0.000000 0.000000 0.000000 
0.000182 0.894770 -0.006444 1.481175 2.290272 -21.610604 1.482719 1.187749 16.219023 -3.899369 0.428312 -0.277421 6.051726 12.105065 -1.778324 0.000000 0.000000 0.000000 -2.737777 -1.258871 14.842007 6.555866 -0.961210 9.851800 -8.916970 -22.906409 -8.819709 0.000000 0.000000 0.000000 5.595583 -4.000527 43.112436 -49.832599 -4.838350 -82.420463 16.964820 -43.084446 74.698712 -0.118032 -13.264599 -35.812688 0.000000 0.000000 0.000000 -44.921389 -10.854489 29.653003 -27.901572 -23.326864 -11.263308 -3.576351 -29.708507 0.593697 0.000000 0.000000 0.000000 30.399022 11.455269 -9.647822 41.931905 -0.085116 -10.807929 13.618379 27.966956 3.512259 0.000000 0.000000 0.000000 
0.000169 0.881864 -0.007750 1.820763 1.559452 -23.254408 1.449470 1.069037 14.023013 -4.494374 0.522310 7.187433 7.349759 13.835697 -7.487471 0.000000 0.000000 0.000000 -3.597264 -1.016384 13.137075 7.517240 -1.318773 16.306917 -8.945399 -23.100784 -13.425740 0.000000 0.000000 0.000000 5.794073 -4.141050 44.996597 -61.896255 -7.264353 -84.623420 21.482638 -54.805050 73.750253 -2.089726 -16.463994 -36.806153 0.000000 0.000000 0.000000 -44.167860 -9.597231 34.637840 -27.874095 -26.064971 -11.790565 -1.476721 -29.361022 -0.885155 0.000000 0.000000 0.000000 25.542019 12.794244 -15.749303 44.751781 -6.816405 -12.214964 17.937421 27.243413 3.115427 0.000000 0.000000 0.000000 
0.000182 0.861443 -0.009767 2.219080 1.220884 -25.163341 1.756952 0.940600 12.245976 -5.912626 0.876416 14.411000 8.500373 15.483682 -15.120840 0.000000 0.000000 0.000000 -4.425365 -0.812154 11.309390 8.365531 -1.777095 23.690353 -9.064997 -23.959697 -19.780313 0.000000 0.000000 0.000000 5.121317 -3.616655 43.639592 -72.509852 -1.690571 -80.765707 31.346395 -65.598946 61.674638 -4.286572 -17.740741 -41.166574 0.000000 0.000000 0.000000 -45.618555 -5.140665 42.144783 -23.551022 -30.630067 -12.142544 1.494131 -28.042507 -2.386714 0.000000 0.000000 0.000000 21.591298 14.647391 -25.848437 45.311141 -17.675386 -12.717603 20.767413 25.443128 1.570549 0.000000 0.000000 0.000000 
-0.000749 0.837706 -0.012731 2.775946 0.942869 -27.866946 1.936111 0.824221 10.545020 -7.268156 1.436531 23.064160 9.365720 17.258753 -22.239426 0.000000 0.000000 0.000000 -6.286395 -0.559233 8.505901 10.501131 -2.976165 34.128391 -9.165080 -24.576987 -24.243917 0.000000 0.000000 0.000000 4.600337 -3.578857 46.311659 -80.965011 -8.931543 -90.781550 16.559388 -75.920206 87.059950 3.105580 -26.995919 -48.379167 0.000000 0.000000 0.000000 -40.242216 -4.721040 42.019202 -27.216588 -31.960517 -13.165770 0.819750 -28.629867 -3.425603 0.000000 0.000000 0.000000 19.696268 14.545407 -33.756351 46.701014 -24.745524 -17.426846 23.989181 23.035377 0.915777 0.000000 0.000000 0.000000 
-0.003946 0.804036 -0.017463 3.119965 1.225192 -31.210195 2.674924 0.656866 8.452961 -8.930804 2.338101 33.556738 10.038971 18.714665 -30.487923 0.000000 0.000000 0.000000 -8.447623 -0.425538 4.855853 13.495617 -5.232202 45.784901 -9.678984 -27.766264 -26.653003 0.000000 0.000000 0.000000 5.889819 -4.037123 47.655351 -171.848299 30.673118 -69.183012 145.694655 -2.536588 -72.743978 -3.294523 -3.449122 -39.269934 0.000000 0.000000 0.000000 -25.656691 10.980144 75.629032 -14.323999 -59.185293 -13.327949 15.765642 -25.181683 -7.149397 0.000000 0.000000 0.000000 5.979127 10.087946 -41.876367 56.848105 -43.890579 -36.839613 32.768505 15.715593 -4.767607 0.000000 0.000000 0.000000 
-0.009923 0.762781 -0.024440 2.738003 0.565567 -36.287321 5.392282 0.558859 6.756098 -11.049993 4.024247 46.364268 10.325704 19.904602 -36.492643 0.000000 0.000000 0.000000 -9.206370 -0.488651 4.468449 15.693469 -6.959393 53.144352 -10.064485 -32.562711 -31.452706 0.000000 0.000000 0.000000 9.060758 -5.014689 50.052268 102.431522 66.380882 -119.094522 101.438385 37.350511 -109.964581 10.705613 32.433303 -23.263240 0.000000 0.000000 0.000000 -25.567702 12.472389 59.817461 -33.356031 -39.891281 -1.730094 6.590471 -33.264411 -1.825346 0.000000 0.000000 0.000000 20.410156 -4.036127 -9.657410 54.020602 -17.342813 -14.017916 20.807259 29.085168 -1.917709 0.000000 0.000000 0.000000 
-0.019217 0.705027 -0.037418 3.020368 1.162559 -42.291453 7.759291 0.533087 2.238737 -13.113404 6.226253 63.484563 9.917503 17.182874 -34.369739 0.000000 0.000000 0.000000 -11.435093 -0.660740 2.064504 17.546889 -9.698154 65.247310 -10.017597 -35.766736 -35.053620 0.000000 0.000000 0.000000 8.168454 -4.636886 53.401855 20.535364 40.363949 176.724270 44.632579 29.376993 -159.877237 165.948569 27.108646 108.555929 0.000000 0.000000 0.000000 -25.744702 3.035490 9.660212 -42.303883 12.853914 18.778932 -4.787189 -41.795462 4.699241 0.000000 0.000000 0.000000 31.435660 -23.253211 30.014054 42.605755 16.016513 11.448030 -7.951711 39.642715 -5.985746 0.000000 0.000000 0.000000 
-0.028593 0.633067 -0.055946 3.119419 -0.438326 -50.077653 11.480644 1.044401 -7.826656 -13.103288 8.557881 83.187235 8.450334 14.160107 -21.467859 0.000000 0.000000 0.000000 -9.213113 -0.532416 -4.919821 17.405547 -10.838616 80.367916 -25.388091 -56.732898 -4.238990 0.000000 0.000000 0.000000 15.251585 -3.079540 45.015264 7.712033 25.006466 157.832248 36.095476 10.082910 -149.529958 105.417616 28.735785 57.517776 0.000000 0.000000 0.000000 -22.992101 0.882329 -2.987715 -20.697658 35.040611 2.012849 -57.062297 -38.728597 34.728755 0.000000 0.000000 0.000000 34.547548 -12.274245 -3.474395 29.293821 -30.808901 -5.299358 36.798943 45.506403 16.687215 0.000000 0.000000 0.000000 
-0.034641 0.549190 -0.075004 3.219227 0.077836 -57.611453 13.448736 1.828307 -18.214764 -11.574224 7.154638 98.268083 7.845617 13.010256 -19.893444 0.000000 0.000000 0.000000 -14.348974 -1.477049 -10.839245 20.348539 -15.529765 91.422751 -29.427642 -50.900150 12.619646 0.000000 0.000000 0.000000 28.678601 3.585685 34.468977 5.590501 17.766708 152.059590 42.676572 3.061953 -133.398485 -165.657708 4.074950 56.907415 0.000000 0.000000 0.000000 -17.239664 3.922846 -3.101048 -2.860269 37.646455 7.448495 -86.580717 -36.191444 56.224425 0.000000 0.000000 0.000000 40.274925 -11.062744 -9.692174 3.834798 -39.294671 -0.045307 64.119423 42.101744 33.029682 0.000000 0.000000 0.000000 
-0.036702 0.446860 -0.090169 4.439379 -0.033555 -66.185951 12.237218 1.859088 -27.945768 -5.771570 -0.437904 106.963469 8.277144 12.799687 -29.028406 0.000000 0.000000 0.000000 -16.256773 -2.310099 -20.233655 21.254164 -16.570296 98.073522 -39.441742 -68.297747 8.003687 0.000000 0.000000 0.000000 31.970418 19.994068 -11.090345 -2.623090 9.080432 132.076348 20.650747 -17.339512 -56.434820 108.826650 16.245099 25.050616 0.000000 0.000000 0.000000 -5.832085 9.757337 -3.881118 -1.889862 27.610829 3.846822 -117.799202 -35.452187 62.914947 0.000000 0.000000 0.000000 37.934058 -9.214078 -24.955028 -11.099168 -32.142876 6.732321 87.418196 40.188717 41.914888 0.000000 0.000000 0.000000 
-0.036247 0.346127 -0.103530 5.063467 0.747093 -72.994233 8.296017 0.182474 -35.020757 5.035714 -14.928933 99.287232 5.477187 -0.977459 -29.215195 0.000000 0.000000 0.000000 -20.359459 -4.051821 -25.726971 22.957837 -16.977556 97.654155 -7.036276 -43.458695 -49.239375 0.000000 0.000000 0.000000 30.314025 25.154007 -32.721824 -4.961980 11.440790 127.686130 13.746846 -15.154249 -32.924305 25.441265 -11.517023 14.581797 0.000000 0.000000 0.000000 4.982463 8.368159 -2.440481 -0.718317 21.353049 1.775410 -146.146155 -27.805334 88.880607 0.000000 0.000000 0.000000 25.406717 -11.230193 -17.301784 -8.000581 -17.767207 2.427566 128.453784 43.327257 77.880314 0.000000 0.000000 0.000000 
-0.036846 0.257397 -0.113593 5.169842 2.171693 -78.380413 5.080753 -1.572026 -36.649863 14.229203 -19.872582 79.766088 -1.055205 -11.275225 -14.886399 0.000000 0.000000 0.000000 -21.445912 -5.135315 -31.572654 23.304130 -16.343628 94.885041 -9.150116 -31.525242 -38.444728 0.000000 0.000000 0.000000 21.821639 18.843435 -41.099629 -6.525342 13.549555 117.234731 13.058300 -7.575595 -32.325330 8.925605 -10.394581 28.643389 0.000000 0.000000 0.000000 4.368020 2.091313 -0.493213 2.617498 13.849270 1.404479 -170.859209 -29.607041 164.369640 0.000000 0.000000 0.000000 3.506150 -7.368647 -3.858314 3.478905 0.631308 -0.193994 -131.669365 15.539940 -32.617646 0.000000 0.000000 0.000000 
-0.041802 0.196928 -0.120492 5.960429 2.041952 -80.119837 6.360637 -0.836377 -36.194111 12.665957 -14.883191 68.810582 -7.126722 -11.387552 2.791717 0.000000 0.000000 0.000000 -19.393126 -4.393978 -39.101042 23.154750 -15.973612 93.093038 -10.452080 -28.928608 -23.684475 0.000000 0.000000 0.000000 19.727453 16.389015 -40.972642 -7.304597 12.414573 100.119376 7.781105 -6.261072 -27.863572 4.321625 -7.966571 33.074102 0.000000 0.000000 0.000000 3.042890 -5.794713 2.033311 0.254819 2.122288 0.153130 165.373933 -36.753670 -124.342513 0.000000 0.000000 0.000000 1.784186 -6.645157 -2.284700 6.935385 14.419837 -0.132395 -115.804890 18.936333 -26.721834 0.000000 0.000000 0.000000 
-0.051181 0.154688 -0.120565 5.159381 1.633830 -83.252390 9.001394 0.901044 -26.692554 9.162212 -9.246343 51.064929 -5.789179 -5.064487 9.652286 0.000000 0.000000 0.000000 -17.477194 -3.561194 -41.259912 23.552363 -16.084016 88.089390 -12.689517 -30.786917 -10.731432 0.000000 0.000000 0.000000 15.370563 12.138862 -36.580516 -4.603347 2.220985 78.294801 -5.761404 -5.405418 -20.207805 2.802912 -11.425831 44.259091 0.000000 0.000000 0.000000 3.576161 -10.557996 3.628943 -8.255122 -9.159202 -0.638617 149.635016 -40.590990 -98.038539 0.000000 0.000000 0.000000 5.932725 -1.076086 -0.313652 8.546363 18.243467 -0.116535 -110.538452 26.335871 -28.307501 0.000000 0.000000 0.000000 
-0.061368 0.138157 -0.113548 5.170846 3.029112 -83.529461 9.153619 1.038884 -21.002478 8.426794 -6.652339 37.779501 -8.069447 -1.483270 24.292097 0.000000 0.000000 0.000000 -20.215058 -5.292601 -43.207346 25.189840 -16.587101 82.090666 -13.437389 -28.472868 0.209593 0.000000 0.000000 0.000000 11.038400 9.399396 -39.386886 -7.914709 6.670127 57.757714 0.462338 1.568614 2.019859 0.188285 -6.178029 34.992757 0.000000 0.000000 0.000000 -2.474416 -6.979751 2.249652 -14.141004 -16.780468 -1.427762 141.704702 -39.415509 -85.676085 0.000000 0.000000 0.000000 1.739449 -0.175566 -0.070416 12.650715 21.023800 -1.264811 -115.781887 25.483736 -26.497188 0.000000 0.000000 0.000000 
-0.069595 0.130617 -0.099935 1.350117 1.869059 -83.609433 10.658270 1.601746 -17.033302 10.179759 -5.553192 25.886783 -12.439838 -2.516425 32.564128 0.000000 0.000000 0.000000 -18.426100 -4.572568 -38.541005 20.980816 -11.640514 68.859678 -13.929944 -25.817017 9.276500 0.000000 0.000000 0.000000 6.753039 6.260693 -38.999962 -4.224421 1.662781 34.429709 -1.279661 4.669259 21.642971 4.525562 -8.667207 18.749997 0.000000 0.000000 0.000000 8.513587 -8.415013 3.059484 -26.283139 -22.312814 -1.734631 132.272249 -41.880122 -77.890778 0.000000 0.000000 0.000000 -4.154964 1.230955 0.053372 13.998069 20.279204 -1.655956 -105.239819 25.435117 -21.299882 0.000000 0.000000 0.000000 
-0.074855 0.123887 -0.084370 -0.365453 0.725685 -82.780219 12.111919 1.978440 -16.595346 10.341846 -4.796840 21.465838 -13.468081 -0.684038 39.446286 0.000000 0.000000 0.000000 -16.215233 -3.359455 -34.225116 15.837953 -6.859371 57.476873 -10.451035 -20.172923 16.935081 0.000000 0.000000 0.000000 4.623946 4.802128 -38.835923 -1.655786 -0.060758 24.140739 -1.251373 5.745917 28.559874 6.932050 -6.779502 2.484296 0.000000 0.000000 0.000000 16.011957 -5.290138 2.381789 -36.653477 -26.311666 -0.846812 131.364008 -43.102095 -77.626324 0.000000 0.000000 0.000000 -7.322555 0.442797 -0.450024 15.034386 18.347489 -1.555776 -101.355117 27.637543 -23.369066 0.000000 0.000000 0.000000 
-0.077049 0.116040 -0.071543 -0.694922 0.198155 -82.503545 13.961329 2.461745 -14.183224 9.262269 -3.412675 15.342497 -11.294427 2.175656 41.277704 0.000000 0.000000 0.000000 -14.219121 -2.403932 -26.459560 11.583785 -3.461341 42.302782 -8.184678 -17.461242 20.012913 0.000000 0.000000 0.000000 5.023732 4.980578 -38.380537 -1.821484 0.423583 15.694812 -0.129834 6.921943 35.296510 5.901087 -3.675234 -5.827018 0.000000 0.000000 0.000000 21.566786 -3.723361 2.432084 -44.229065 -26.696091 -0.942785 134.786296 -45.944827 -86.681702 0.000000 0.000000 0.000000 -11.301258 -1.866356 -1.693564 20.751313 13.553045 -1.743034 -103.727549 32.359092 -28.951618 0.000000 0.000000 0.000000 
-0.077108 0.112956 -0.064783 -1.374333 0.725151 -80.130715 13.835973 2.322804 -14.037304 7.103987 -2.054184 9.890391 -10.126128 3.250939 40.578640 0.000000 0.000000 0.000000 -13.431344 -2.114227 -22.017623 7.482355 -1.503703 29.584538 -6.809897 -16.273036 21.681692 0.000000 0.000000 0.000000 3.432731 4.076260 -40.960055 -1.889139 0.478611 14.254587 0.407108 6.310302 36.440229 6.609150 -3.350470 -10.296581 0.000000 0.000000 0.000000 24.969623 -2.002593 2.256610 -47.839856 -24.732274 -1.413758 136.517212 -47.535679 -90.703287 0.000000 0.000000 0.000000 -15.119738 -1.227190 -1.769318 23.997631 8.517983 -2.201284 -98.914594 35.845912 -30.524487 0.000000 0.000000 0.000000 
-0.076047 0.112063 -0.061762 -1.494289 1.198860 -79.185774 14.287088 2.342280 -12.202846 4.330183 -0.832384 3.450185 -9.751957 3.693040 40.468203 0.000000 0.000000 0.000000 -12.467133 -1.845494 -16.813021 4.379507 -0.481034 17.391513 -7.403631 -17.351787 24.418618 0.000000 0.000000 0.000000 3.565779 4.028129 -40.899185 -2.143393 0.614302 14.078068 -0.586488 6.549229 37.048332 6.863218 -3.423069 -10.665071 0.000000 0.000000 0.000000 26.843985 -2.685857 2.508351 -50.000657 -22.302816 -2.525658 139.847400 -49.451478 -98.248629 0.000000 0.000000 0.000000 -16.562442 -4.208347 -2.778945 26.503070 4.543670 -2.899389 -101.355932 41.337207 -37.418447 0.000000 0.000000 0.000000 
-0.074905 0.112078 -0.061148 -1.515270 1.885926 -77.898504 13.266156 2.045785 -11.310392 3.139725 -0.338055 -1.056535 -8.582683 5.303010 42.163687 0.000000 0.000000 0.000000 -11.796188 -1.719467 -12.649349 2.025690 -0.124239 6.301797 -7.343119 -17.741886 29.791531 0.000000 0.000000 0.000000 2.130138 3.054025 -41.656101 -1.542514 0.212650 14.265700 -0.632464 6.629791 37.095627 7.102641 -3.300742 -12.194582 0.000000 0.000000 0.000000 26.911942 -2.583759 2.421871 -52.691566 -18.023384 -4.330517 146.390828 -51.245833 -109.788205 0.000000 0.000000 0.000000 -15.965035 -5.422067 -3.059612 27.083117 -0.888799 -3.903504 -105.183250 48.262365 -48.938974 0.000000 0.000000 0.000000 
-0.074178 0.113632 -0.060613 -1.411872 1.720802 -77.637995 14.056910 2.170818 -8.864756 1.753651 0.008724 -5.489671 -8.564675 5.547715 42.896618 0.000000 0.000000 0.000000 -11.734043 -1.761763 -8.546421 1.850866 -0.313008 -1.956444 -6.513949 -17.573350 35.631508 0.000000 0.000000 0.000000 2.654647 3.374631 -40.418124 -2.010086 0.588674 12.865718 -0.288460 6.644612 37.880196 7.579064 -3.603167 -12.542668 0.000000 0.000000 0.000000 26.707036 -3.056886 2.496694 -52.728945 -15.023422 -5.711610 148.828915 -54.496117 -118.019546 0.000000 0.000000 0.000000 -15.452058 -7.792885 -3.776138 27.964106 -5.777547 -4.877782 -95.738063 57.152388 -51.901981 0.000000 0.000000 0.000000 
-0.073478 0.114872 -0.060098 -1.599861 1.708826 -77.190241 14.328885 2.158343 -7.149245 1.034225 0.139927 -8.458386 -7.709157 6.136357 42.064172 0.000000 0.000000 0.000000 -12.099929 -1.870304 -5.706334 1.462584 -0.424986 -7.847840 -6.561458 -17.983091 37.811756 0.000000 0.000000 0.000000 1.991568 2.938857 -40.216598 -1.176590 0.129439 11.686097 -0.679400 5.796739 38.424249 7.996291 -3.941240 -13.568867 0.000000 0.000000 0.000000 25.825026 -1.910038 1.978980 -53.986066 -12.091142 -6.792536 155.534818 -60.438684 -133.274689 0.000000 0.000000 0.000000 -15.026526 -8.243270 -3.765166 30.759586 -8.933068 -6.053418 -71.201905 60.233575 -38.023447 0.000000 0.000000 0.000000 
-0.072336 0.114338 -0.059421 -1.622069 1.621404 -77.981963 13.929908 2.073288 -5.679411 0.654407 0.177643 -9.312774 -7.457627 6.404784 42.259609 0.000000 0.000000 0.000000 -12.763000 -2.039556 -4.047936 2.942557 -0.554340 -9.797567 -5.582308 -17.408704 41.994690 0.000000 0.000000 0.000000 1.933267 2.860558 -39.507855 -0.888646 0.063021 9.457399 -0.387311 4.921845 39.671218 7.551710 -3.344082 -15.792219 0.000000 0.000000 0.000000 26.545856 -1.810415 1.774437 -55.700604 -9.190145 -8.065526 157.360573 -66.024463 -140.062271 0.000000 0.000000 0.000000 -17.362551 -8.698491 -3.752515 34.475834 -10.456789 -7.074298 -45.772733 52.094677 -18.606888 0.000000 0.000000 0.000000 
-0.071162 0.113860 -0.058675 -1.633163 1.627484 -78.104531 13.326248 1.947768 -4.831240 1.026901 0.177723 -10.239840 -7.288472 6.611555 42.566771 0.000000 0.000000 0.000000 -13.304004 -2.151532 -3.130371 3.886198 -0.611558 -11.763480 -5.013737 -17.016002 42.945657 0.000000 0.000000 0.000000 1.777095 2.784183 -39.784564 -1.008468 0.159743 8.911832 -0.341046 4.467062 40.593344 7.948092 -3.395526 -17.666508 0.000000 0.000000 0.000000 26.463716 -1.023799 1.515499 -56.196557 -8.033240 -8.619602 159.345184 -73.547766 -147.616574 0.000000 0.000000 0.000000 -17.390113 -8.630133 -3.683335 37.534783 -10.179687 -7.716281 -30.996815 44.899416 -9.763886 0.000000 0.000000 0.000000 
-0.070048 0.114032 -0.057790 -1.505250 1.470093 -78.239309 12.657551 1.835788 -4.263050 1.434120 0.186845 -11.015185 -6.782583 7.080355 42.994140 0.000000 0.000000 0.000000 -12.827783 -2.049933 -2.601099 4.343693 -0.614952 -12.976038 -4.088507 -16.325442 44.687701 0.000000 0.000000 0.000000 1.950488 2.889474 -39.607076 -0.823912 0.108952 7.827171 -0.462660 4.568744 41.206320 8.483912 -3.716185 -18.221470 0.000000 0.000000 0.000000 24.999842 -1.424544 1.516433 -56.029312 -6.787485 -9.203265 151.689332 -80.316329 -142.874251 0.000000 0.000000 0.000000 -17.003380 -8.574617 -3.646969 39.377505 -9.312594 -7.936983 -23.778424 38.750242 -5.929090 0.000000 0.000000 0.000000 
-0.069252 0.112837 -0.056822 -1.590453 1.547635 -78.711608 12.272283 1.767855 -3.573745 1.152493 0.199324 -11.385091 -6.255940 7.865193 44.241207 0.000000 0.000000 0.000000 -12.848752 -2.090712 -2.078171 4.620115 -0.626157 -13.407920 -2.195536 -14.663491 45.918920 0.000000 0.000000 0.000000 1.727331 2.741544 -39.184949 -0.662078 0.068386 6.496886 -0.704258 3.993925 42.112614 8.757677 -3.754936 -19.702481 0.000000 0.000000 0.000000 23.596338 -0.455740 1.183650 -56.418260 -5.281620 -9.946980 162.125123 -87.240448 -157.825914 0.000000 0.000000 0.000000 -16.907664 -8.066964 -3.469023 41.760190 -8.259293 -8.221300 -18.919050 35.703273 -4.091156 0.000000 0.000000 0.000000 
-0.068625 0.112936 -0.055755 -2.072133 1.570399 -79.438919 12.055389 1.742010 -2.989260 1.162753 0.198231 -11.670264 -6.535602 7.960586 45.519593 0.000000 0.000000 0.000000 -12.386900 -2.066437 -1.132333 4.278244 -0.629109 -14.114084 -1.356928 -14.019780 47.745808 0.000000 0.000000 0.000000 1.066381 2.305899 -39.185733 -0.347644 -0.158667 7.390346 -0.570947 3.551641 41.407015 8.996685 -4.130921 -19.094980 0.000000 0.000000 0.000000 21.905835 0.072118 0.944317 -55.675317 -3.489823 -10.484873 -66.109364 -88.648751 67.918169 0.000000 0.000000 0.000000 -15.677163 -7.532544 -3.228024 42.344323 -7.807230 -8.353926 -15.517198 33.973512 -3.103220 0.000000 0.000000 0.000000 
-0.068171 0.114404 -0.055107 -2.366672 1.256993 -80.186762 12.678636 1.866271 -2.646503 0.688121 0.203895 -11.140120 -7.139395 7.534819 45.757131 0.000000 0.000000 0.000000 -11.963826 -2.032691 0.021946 4.558337 -0.636819 -14.626363 -0.909807 -13.572580 47.010299 0.000000 0.000000 0.000000 0.951216 2.254640 -39.101194 -0.042295 -0.325190 7.247177 -0.731892 2.597610 41.680823 9.223308 -4.476055 -19.446093 0.000000 0.000000 0.000000 20.067431 0.657188 0.524758 -55.453843 -1.955891 -10.917462 -42.985768 -84.145756 42.342800 0.000000 0.000000 0.000000 -14.164164 -7.201941 -2.987709 43.078148 -7.395435 -8.670883 -12.129160 33.447306 -2.324735 0.000000 0.000000 0.000000 
-0.067821 0.116326 -0.054478 -2.592296 0.836144 -81.064978 13.199165 1.974341 -1.764717 0.173627 0.221619 -11.252626 -7.159081 7.709338 46.594097 0.000000 0.000000 0.000000 -11.404095 -1.967807 0.480195 4.381059 -0.635494 -13.114715 0.194056 -12.579825 47.074830 0.000000 0.000000 0.000000 0.524319 2.043469 -38.884078 0.727683 -0.809294 8.128507 -0.907122 1.833900 40.123077 9.755371 -4.925287 -19.952839 0.000000 0.000000 0.000000 18.869895 0.967501 0.254840 -55.801157 0.197752 -11.512138 -46.493379 -81.933289 44.396729 0.000000 0.000000 0.000000 -13.305280 -6.626635 -2.607493 44.550203 -7.013700 -8.995432 -8.162898 31.559456 -1.326549 0.000000 0.000000 0.000000 
-0.067467 0.117115 -0.053948 -2.959448 -0.023618 -82.531980 13.960373 2.143927 -0.651840 -0.306788 0.239753 -10.719099 -7.044410 7.698974 46.071995 0.000000 0.000000 0.000000 -10.879488 -1.913937 1.765504 5.158424 -0.654522 -11.722354 0.529872 -12.329487 46.594980 0.000000 0.000000 0.000000 0.511752 2.107944 -38.350498 1.203423 -0.993795 6.943337 -0.674993 0.929871 40.951271 9.266713 -4.794768 -20.221281 0.000000 0.000000 0.000000 18.705159 1.580133 -0.107554 -58.093722 1.407842 -12.296216 -48.652066 -78.809775 44.841151 0.000000 0.000000 0.000000 -12.428382 -6.048680 -2.270476 46.191686 -6.449926 -9.453780 -5.128230 29.173981 -0.637334 0.000000 0.000000 0.000000 
-0.067388 0.116744 -0.053299 -3.448119 -0.110545 -83.553865 14.333135 2.221119 -0.080114 -1.205673 0.268381 -10.293819 -6.515262 8.323427 46.489294 0.000000 0.000000 0.000000 -9.896673 -1.790100 1.459067 3.772312 -0.598999 -8.625290 0.784088 -11.854530 45.934126 0.000000 0.000000 0.000000 -0.317144 1.562997 -39.067833 1.785228 -1.338290 7.183403 -0.325504 0.155695 41.171617 9.346131 -5.066068 -20.085868 0.000000 0.000000 0.000000 17.798410 1.411083 -0.256395 -59.713502 3.262506 -13.365702 -48.948754 -77.170416 44.294381 0.000000 0.000000 0.000000 -11.592182 -5.434934 -1.970797 48.549849 -6.725882 -10.353761 -0.994473 28.858856 0.245383 0.000000 0.000000 0.000000 
-0.067600 0.117252 -0.052845 -3.738310 -0.783955 -84.489287 15.691127 2.462575 0.541990 -1.974018 0.311143 -9.533605 -6.289206 8.477783 46.168343 0.000000 0.000000 0.000000 -8.545123 -1.569225 1.894521 2.880056 -0.509874 -6.687546 0.524964 -11.850305 44.228401 0.000000 0.000000 0.000000 -0.287123 1.609193 -38.792152 2.107208 -1.502250 7.184375 0.000195 -0.456070 40.713142 8.819405 -4.958324 -19.677387 0.000000 0.000000 0.000000 17.798853 1.391039 -0.404828 -62.594966 4.197384 -14.134300 -41.531931 -73.250304 36.089931 0.000000 0.000000 0.000000 -10.707758 -5.398804 -1.849193 49.673928 -6.739278 -10.846411 3.676998 25.646481 1.100133 0.000000 0.000000 0.000000 
-0.067965 0.114887 -0.052416 -4.118493 -1.214957 -85.184900 16.775829 2.645407 0.611221 -3.147643 0.368538 -8.812207 -6.553028 8.380192 46.436005 0.000000 0.000000 0.000000 -7.657242 -1.401238 1.274634 1.678375 -0.329803 -3.513871 0.342890 -11.747435 43.004461 0.000000 0.000000 0.000000 -0.668776 1.388567 -38.787887 2.592735 -1.698298 6.243350 -0.029574 -1.086915 41.663803 9.150959 -5.352291 -19.898223 0.000000 0.000000 0.000000 17.303101 1.459986 -0.580492 -63.852483 4.539898 -14.447692 -36.649624 -67.816035 29.406950 0.000000 0.000000 0.000000 -9.972273 -5.461858 -1.832945 51.038761 -7.399167 -11.734205 9.745349 24.716337 2.199102 0.000000 0.000000 0.000000 
-0.068488 0.114298 -0.052494 -4.370806 -1.776692 -85.577378 18.033444 2.871209 0.486965 -3.905341 0.419754 -8.220343 -6.799804 8.097959 45.978890 0.000000 0.000000 0.000000 -6.752507 -1.208396 0.985563 1.238766 -0.223458 -1.696432 -0.601339 -12.528651 41.969191 0.000000 0.000000 0.000000 -0.641353 1.429579 -38.851849 2.586474 -1.665042 6.074460 0.457110 -1.172869 42.030798 9.264244 -5.639177 -19.229641 0.000000 0.000000 0.000000 18.039617 0.593890 -0.436127 -65.573116 3.292612 -13.995046 -28.283822 -61.924698 20.964238 0.000000 0.000000 0.000000 -9.247900 -5.827975 -1.941125 51.029865 -7.122962 -11.767725 13.294254 22.617940 2.612569 0.000000 0.000000 0.000000 
-0.069050 0.114702 -0.052670 -4.558203 -2.054222 -85.595685 18.690766 2.959447 0.517643 -4.939601 0.471266 -8.083212 -6.562050 8.284806 45.786938 0.000000 0.000000 0.000000 -6.391607 -1.099936 0.299170 0.251521 -0.016390 0.325232 -0.989571 -12.671690 40.537265 0.000000 0.000000 0.000000 -0.827180 1.339094 -38.844170 2.937919 -1.874799 6.326308 0.555723 -1.330552 41.543722 9.771038 -6.101333 -18.933085 0.000000 0.000000 0.000000 17.394014 0.076073 -0.337675 -65.497761 2.519356 -13.427319 -26.185421 -57.133182 17.764515 0.000000 0.000000 0.000000 -8.753981 -5.609308 -1.862107 51.102429 -6.194302 -11.485995 14.052989 21.348292 2.590473 0.000000 0.000000 0.000000 
-0.069637 0.113910 -0.052855 -4.313715 -2.320862 -85.843657 19.129876 3.017935 0.961102 -5.411334 0.507386 -7.860016 -6.141420 8.481011 45.118138 0.000000 0.000000 0.000000 -5.751501 -0.956541 -0.085357 -0.737909 0.191961 1.633972 -1.583171 -13.168049 39.610548 0.000000 0.000000 0.000000 -0.566083 1.564061 -38.884805 3.002711 -1.868314 5.929910 0.534346 -1.457452 41.812844 9.531837 -6.170482 -18.115980 0.000000 0.000000 0.000000 17.536398 -0.223109 -0.342555 -65.459160 1.903911 -12.982972 -26.303405 -53.556404 16.533570 0.000000 0.000000 0.000000 -8.931264 -5.179046 -1.699462 51.011704 -5.084926 -11.136096 15.209123 20.563716 2.661744 0.000000 0.000000 0.000000 
-0.070315 0.113999 -0.052933 -4.051559 -2.645211 -85.610650 19.387852 3.070240 0.915750 -5.390339 0.515218 -7.832138 -5.836485 8.569588 44.595666 0.000000 0.000000 0.000000 -5.540855 -0.875521 -0.589073 -1.289476 0.334380 2.637555 -3.105831 -14.559302 37.398411 0.000000 0.000000 0.000000 -0.096249 1.965604 -39.380157 2.825088 -1.775558 6.124544 0.481198 -1.634769 41.507452 9.860154 -6.465618 -18.052913 0.000000 0.000000 0.000000 17.885855 -0.146435 -0.397965 -64.365817 2.219997 -12.796969 -28.123748 -52.015641 16.857375 0.000000 0.000000 0.000000 -9.148866 -4.623980 -1.488302 50.291674 -4.073798 -10.589730 15.024645 19.676373 2.494302 0.000000 0.000000 0.000000 
-0.070962 0.113318 -0.052877 -3.756403 -2.870443 -85.490132 19.620789 3.085499 1.184862 -5.734477 0.523996 -8.272557 -5.553837 8.735676 44.497975 0.000000 0.000000 0.000000 -5.764156 -0.857390 -1.380175 -1.312690 0.414776 3.978824 -3.551724 -15.015717 36.631971 0.000000 0.000000 0.000000 0.096940 2.182770 -39.671342 3.278648 -2.045099 6.516264 0.042596 -1.489909 41.135874 9.899702 -6.658148 -17.228396 0.000000 0.000000 0.000000 17.959116 -0.343076 -0.381301 -63.275948 2.477418 -12.639231 -27.890027 -50.549887 16.157276 0.000000 0.000000 0.000000 -9.223883 -4.408811 -1.415889 49.866597 -3.137995 -10.144639 13.991493 18.844629 2.235457 0.000000 0.000000 0.000000 
-0.071635 0.112726 -0.052614 -3.292986 -3.090317 -85.557718 19.845905 3.146799 1.387325 -5.716901 0.523565 -8.548190 -5.254412 9.039635 45.024122 0.000000 0.000000 0.000000 -6.344402 -0.933675 -1.934163 -0.088655 0.244382 4.917694 -4.035530 -15.622221 36.124135 0.000000 0.000000 0.000000 0.734386 2.702528 -39.791946 3.278304 -2.029737 6.423714 -0.389891 -1.408447 41.163949 9.989981 -6.809966 -16.809417 0.000000 0.000000 0.000000 18.405351 -0.276318 -0.404384 -61.561272 2.959670 -12.546154 -28.839265 -51.143091 16.727798 0.000000 0.000000 0.000000 -9.743827 -4.374023 -1.392144 48.801704 -2.698122 -9.726175 11.700877 19.490662 1.979452 0.000000 0.000000 0.000000 
-0.072188 0.111706 -0.052074 -2.931113 -2.890557 -85.765491 19.574537 3.112250 1.541111 -5.630381 0.522763 -8.531345 -5.546891 8.898109 45.682518 0.000000 0.000000 0.000000 -7.293044 -1.073558 -3.012962 1.122227 0.110637 7.119538 -3.987078 -15.628328 36.154566 0.000000 0.000000 0.000000 0.972698 2.872630 -39.741007 3.335051 -2.058123 6.358953 -0.867734 -1.481875 41.325165 9.616998 -6.689614 -16.066052 0.000000 0.000000 0.000000 18.588290 0.599927 -0.643648 -59.753093 3.347303 -12.358321 -31.052086 -52.713786 18.496784 0.000000 0.000000 0.000000 -10.350697 -4.096209 -1.292148 47.730690 -2.629806 -9.468184 11.146894 21.863855 2.144205 0.000000 0.000000 0.000000 
-0.072697 0.111454 -0.051186 -2.648443 -2.815301 -85.964403 18.970587 3.037573 1.700290 -4.882041 0.500722 -8.344766 -5.446999 8.979630 46.007992 0.000000 0.000000 0.000000 -7.930953 -1.172379 -3.686992 2.444362 -0.118517 8.305976 -4.348175 -16.052634 35.979957 0.000000 0.000000 0.000000 0.973982 2.886598 -39.729513 3.533143 -2.147150 6.131525 -1.004826 -1.573659 41.064296 8.994298 -6.111525 -16.645519 0.000000 0.000000 0.000000 19.729995 0.570736 -0.664818 -59.160623 4.110545 -12.346674 -31.760130 -55.639610 20.015528 0.000000 0.000000 0.000000 -12.581883 -4.524689 -1.250487 48.136092 -2.146815 -9.263523 8.961190 23.864191 1.935678 0.000000 0.000000 0.000000 
-0.073076 0.111658 -0.050099 -2.213960 -2.724623 -86.171338 18.469892 2.981710 1.937300 -4.561779 0.500653 -7.977229 -5.809126 8.625290 46.077071 0.000000 0.000000 0.000000 -9.003374 -1.375441 -4.217535 3.762473 -0.363573 9.457874 -3.633965 -15.360279 35.514207 0.000000 0.000000 0.000000 1.187257 3.023033 -39.251869 3.685539 -2.158438 5.192145 -1.519698 -1.864940 41.170990 8.090139 -5.484761 -16.824794 0.000000 0.000000 0.000000 20.210437 1.569094 -0.982953 -57.644694 4.459866 -11.982053 -34.414523 -57.823191 22.663295 0.000000 0.000000 0.000000 -13.636746 -3.607396 -0.877734 47.469019 -1.392051 -8.879197 6.218506 26.085053 1.520260 0.000000 0.000000 0.000000 
-0.073443 0.109278 -0.049235 -1.853678 -2.586185 -86.078073 17.843947 2.896936 1.931774 -4.271854 0.490467 -7.918964 -5.702864 8.536194 45.545398 0.000000 0.000000 0.000000 -9.294054 -1.394097 -5.356626 4.431810 -0.487008 10.498955 -3.739964 -15.467210 35.463750 0.000000 0.000000 0.000000 1.086037 3.010204 -39.723464 4.130254 -2.390473 5.209844 -1.825086 -2.052778 41.564635 7.754688 -5.468792 -16.053493 0.000000 0.000000 0.000000 19.145650 1.507918 -1.068225 -56.895300 4.823602 -11.998879 -32.772316 -61.864895 23.744527 0.000000 0.000000 0.000000 -13.550705 -3.591798 -0.847821 47.863130 -0.846197 -8.912069 2.164311 31.863100 0.860408 0.000000 0.000000 0.000000 
-0.073884 0.109767 -0.048875 -1.408274 -2.888367 -86.252392 17.825522 2.907475 2.433854 -3.889507 0.469539 -8.294124 -6.333379 7.975384 45.772761 0.000000 0.000000 0.000000 -10.027246 -1.523580 -6.149382 5.891886 -0.779997 12.109064 -3.304597 -15.081668 35.048045 0.000000 0.000000 0.000000 1.754814 3.575813 -39.724862 4.315096 -2.483306 5.153301 -2.441274 -2.785904 41.880051 7.620385 -5.508914 -16.264454 0.000000 0.000000 0.000000 18.192691 2.317980 -1.363393 -56.482637 5.157231 -11.963963 -36.266595 -66.684648 28.993752 0.000000 0.000000 0.000000 -14.332470 -3.937363 -0.833976 49.278219 -0.443978 -9.203511 -0.958032 40.337165 0.028242 0.000000 0.000000 0.000000 
-0.074415 0.107838 -0.048754 -1.395008 -3.198688 -86.488283 17.538392 2.926632 2.219803 -3.894132 0.487989 -7.452570 -6.204477 7.926317 45.283546 0.000000 0.000000 0.000000 -10.280451 -1.551215 -7.185604 6.765962 -0.965426 14.254798 -3.402478 -15.096724 34.075054 0.000000 0.000000 0.000000 2.039925 3.803435 -39.494847 4.836843 -2.748444 5.010964 -3.262803 -3.321381 42.224707 7.171236 -5.324137 -16.389981 0.000000 0.000000 0.000000 17.099717 2.766418 -1.579643 -57.323785 4.707504 -11.838809 -33.954375 -70.133001 29.824226 0.000000 0.000000 0.000000 -14.740834 -3.860805 -0.726339 51.070100 -0.052662 -9.606774 -3.461040 49.213840 -1.017945 0.000000 0.000000 0.000000 
-0.075103 0.107572 -0.048841 -1.214659 -3.370781 -86.751628 17.264659 2.920396 2.332732 -3.246723 0.452170 -7.192309 -6.627746 7.506578 45.318380 0.000000 0.000000 0.000000 -10.820801 -1.670235 -7.531461 7.701459 -1.186213 15.395854 -3.306266 -14.996281 33.501733 0.000000 0.000000 0.000000 2.324871 4.078474 -39.868257 4.871106 -2.803911 5.540771 -3.390363 -3.564973 42.451241 7.202039 -5.533234 -15.676665 0.000000 0.000000 0.000000 16.542009 2.354501 -1.505820 -58.251572 3.974766 -11.714907 -27.524074 -75.045879 27.813036 0.000000 0.000000 0.000000 -14.976614 -4.162324 -0.770506 51.603436 -0.318295 -9.925600 -3.856815 56.215381 -1.378175 0.000000 0.000000 0.000000 
-0.075806 0.109322 -0.048924 -1.058804 -3.920448 -86.573435 17.434726 3.000227 1.912768 -3.118437 0.450180 -6.377593 -6.610441 7.334423 44.869312 0.000000 0.000000 0.000000 -11.110152 -1.700323 -7.751308 8.756752 -1.433475 15.939367 -3.256075 -14.962673 32.796470 0.000000 0.000000 0.000000 2.988085 4.666414 -40.078316 4.974125 -2.901330 6.146407 -4.065568 -4.087709 42.117144 7.516627 -6.024251 -14.943270 0.000000 0.000000 0.000000 15.006029 2.257419 -1.506084 -58.601106 3.135027 -11.414356 -16.776183 -77.527127 20.898216 0.000000 0.000000 0.000000 -14.359610 -4.079040 -0.759941 51.212554 -0.499357 -10.044221 -4.198334 59.985098 -1.775459 0.000000 0.000000 0.000000 
-0.076295 0.108914 -0.048647 -0.741220 -4.322760 -86.284729 17.733977 3.118031 1.239147 -3.274253 0.470702 -5.290433 -6.426180 7.317015 44.473102 0.000000 0.000000 0.000000 -11.165825 -1.675312 -7.929807 8.939816 -1.448467 15.273977 -3.235685 -15.037877 32.871979 0.000000 0.000000 0.000000 3.560880 5.184936 -40.347570 4.992550 -2.928539 6.522593 -4.528429 -4.093255 42.162070 7.434951 -6.269335 -13.458569 0.000000 0.000000 0.000000 13.470280 1.831908 -1.339892 -58.318817 1.442406 -10.779940 -1.590023 -77.975502 9.039947 0.000000 0.000000 0.000000 -13.404736 -3.844538 -0.798341 50.002788 -0.650896 -9.925251 -4.343549 61.748567 -1.972408 0.000000 0.000000 0.000000 
-0.076507 0.110044 -0.048219 -0.389035 -4.619576 -86.098167 18.016823 3.223517 0.627757 -3.383081 0.484963 -3.997489 -6.843329 6.882105 44.450506 0.000000 0.000000 0.000000 -11.530452 -1.731804 -7.962061 9.518542 -1.564197 14.942279 -2.757734 -14.653902 33.209051 0.000000 0.000000 0.000000 4.404409 5.903349 -40.662094 4.749043 -2.865333 7.474286 -5.105237 -4.448348 41.746261 8.145908 -7.045801 -12.504325 0.000000 0.000000 0.000000 12.449167 1.760684 -1.273132 -57.886458 0.637438 -10.436587 8.619756 -78.082660 1.062990 0.000000 0.000000 0.000000 -13.045870 -3.803870 -0.833831 48.699381 -0.140000 -9.458118 -5.198961 59.212126 -2.469082 0.000000 0.000000 0.000000 
-0.076541 0.110789 -0.047658 0.031842 -4.683344 -85.932370 17.969484 3.254800 0.119431 -3.644435 0.515527 -3.016395 -6.106726 7.443307 44.359637 0.000000 0.000000 0.000000 -11.839271 -1.781407 -7.726033 8.923616 -1.387035 13.536810 -2.629803 -14.754543 34.573546 0.000000 0.000000 0.000000 5.026474 6.475681 -41.216564 4.513288 -2.753577 7.768139 -5.508431 -4.269726 41.858010 7.962272 -6.938849 -12.097139 0.000000 0.000000 0.000000 12.007712 1.761177 -1.203853 -58.139413 0.245081 -10.500095 17.207436 -78.292329 -5.915509 0.000000 0.000000 0.000000 -12.551280 -3.866094 -0.962748 47.490532 -0.171160 -9.165782 -7.637407 55.653085 -3.535669 0.000000 0.000000 0.000000 
-0.076479 0.112675 -0.047030 0.485394 -4.484201 -85.831251 18.367274 3.346897 -0.211591 -3.962915 0.552741 -2.088834 -5.862078 7.602381 44.030876 0.000000 0.000000 0.000000 -12.302959 -1.893182 -6.603639 8.731075 -1.309166 10.840817 -1.964061 -14.363465 36.096856 0.000000 0.000000 0.000000 5.579847 6.891100 -41.260681 3.891205 -2.457424 8.437036 -5.439447 -3.968229 41.213822 8.012584 -6.836013 -12.222824 0.000000 0.000000 0.000000 12.477465 1.458244 -1.049177 -58.153933 -0.336284 -10.314426 21.217543 -77.578282 -9.353477 0.000000 0.000000 0.000000 -12.915031 -4.053469 -1.053580 46.448241 0.230010 -8.633723 -8.745624 51.419231 -3.674044 0.000000 0.000000 0.000000 
-0.076526 0.112503 -0.046436 0.923021 -4.165479 -85.377507 18.601819 3.391046 -0.836785 -4.452170 0.611358 -1.356378 -5.522460 7.874892 43.938287 0.000000 0.000000 0.000000 -12.746019 -1.969689 -5.886602 8.540942 -1.233261 7.812500 -2.756871 -15.341233 36.789823 0.000000 0.000000 0.000000 5.876261 7.111478 -41.550318 3.648659 -2.315919 8.410918 -5.581830 -3.269798 41.268171 8.168958 -6.916594 -11.761267 0.000000 0.000000 0.000000 12.285361 1.265408 -0.903632 -58.048959 -1.102608 -10.202957 23.152497 -75.905798 -10.822120 0.000000 0.000000 0.000000 -12.369887 -3.904461 -1.137442 45.874559 1.167205 -8.113223 -12.434845 45.686645 -4.515350 0.000000 0.000000 0.000000 
-0.076545 0.112482 -0.046084 1.641112 -3.834415 -85.145207 18.980172 3.442882 -0.633265 -5.007525 0.677956 -1.493129 -5.264128 7.990020 43.406507 0.000000 0.000000 0.000000 -13.408285 -2.092224 -4.494377 8.808481 -1.200103 4.169906 -3.182888 -16.047555 37.683731 0.000000 0.000000 0.000000 6.419179 7.499341 -41.542338 2.670388 -1.761988 8.506468 -4.918003 -2.487242 41.243435 8.258210 -6.933217 -11.135525 0.000000 0.000000 0.000000 12.526725 0.633229 -0.623684 -58.439735 -2.210499 -10.038415 25.100186 -73.181715 -12.082808 0.000000 0.000000 0.000000 -12.191842 -3.867835 -1.233739 45.838601 1.330416 -7.911353 -13.173880 41.510751 -4.143681 0.000000 0.000000 0.000000 
-0.076570 0.110860 -0.046141 1.974418 -3.396956 -84.788336 18.841132 3.425960 -1.159602 -5.630041 0.759826 -0.808897 -4.545612 8.350778 42.063436 0.000000 0.000000 0.000000 -13.595474 -2.120125 -4.220339 8.370380 -1.091677 2.373075 -4.163140 -17.050319 37.494099 0.000000 0.000000 0.000000 6.283827 7.311497 -41.302715 2.491927 -1.640403 8.158839 -4.682222 -1.782280 41.602273 8.914246 -7.400656 -11.099186 0.000000 0.000000 0.000000 11.861246 0.280570 -0.450227 -58.222059 -3.464472 -9.723602 24.774012 -70.036259 -11.344091 0.000000 0.000000 0.000000 -11.760258 -3.971360 -1.366991 45.724823 2.091093 -7.624652 -14.104555 38.052168 -3.916186 0.000000 0.000000 0.000000 
-0.076476 0.108733 -0.046492 1.976162 -2.753965 -84.806732 18.517265 3.320523 -1.052040 -6.263810 0.830270 -0.814632 -3.127912 9.363950 40.359796 0.000000 0.000000 0.000000 -13.625268 -2.157816 -3.092440 7.650265 -0.948508 -0.434250 -5.099741 -17.968690 37.594191 0.000000 0.000000 0.000000 5.815599 6.843678 -41.102780 1.965709 -1.346020 7.996283 -4.104830 -1.034197 42.557013 8.313177 -7.126296 -9.450424 0.000000 0.000000 0.000000 11.293747 -0.298716 -0.207909 -57.746696 -4.949085 -9.443860 23.203548 -65.337095 -9.686501 0.000000 0.000000 0.000000 -10.753735 -3.970260 -1.530714 45.583951 1.998533 -7.693060 -11.789104 36.557511 -2.888330 0.000000 0.000000 0.000000 
-0.076345 0.107431 -0.047023 1.843122 -2.246280 -84.694954 17.797449 3.145205 -1.056500 -6.127239 0.800982 -0.986248 -2.360964 9.838270 38.898591 0.000000 0.000000 0.000000 -13.052215 -2.093232 -2.391393 5.984794 -0.749685 -2.243885 -6.096801 -18.845621 37.156715 0.000000 0.000000 0.000000 5.744889 6.696150 -41.049030 1.897522 -1.396215 9.169956 -4.256002 -0.427657 42.089434 9.202206 -7.757693 -9.375374 0.000000 0.000000 0.000000 10.130439 -1.965885 0.431917 -57.300774 -6.023527 -9.248638 22.867029 -59.465837 -8.738153 0.000000 0.000000 0.000000 -10.890876 -3.991839 -1.651478 46.724236 1.592632 -7.877299 -8.168231 35.347410 -1.547298 0.000000 0.000000 0.000000 
-0.076221 0.106261 -0.047642 1.746663 -1.740189 -84.819220 17.397331 3.035310 -0.855392 -6.718523 0.856173 -1.132051 -1.495188 10.450988 37.382970 0.000000 0.000000 0.000000 -12.298589 -2.021939 -1.659649 4.418299 -0.597618 -3.560727 -6.195028 -18.798838 36.163950 0.000000 0.000000 0.000000 5.562823 6.384919 -40.219184 1.468982 -1.175635 9.262512 -4.075969 0.251716 41.400095 9.143369 -7.618300 -8.831109 0.000000 0.000000 0.000000 8.951291 -2.911076 0.862995 -55.742765 -6.948025 -8.897057 18.937588 -53.663618 -6.281621 0.000000 0.000000 0.000000 -10.458617 -3.749611 -1.662256 45.969520 0.004311 -8.102123 -1.940726 34.844522 0.283234 0.000000 0.000000 0.000000 
-0.076153 0.100848 -0.048042 1.688009 -1.163159 -85.273017 17.226122 2.977029 -0.566949 -8.022008 0.994745 -1.219336 -1.336516 10.263953 35.039949 0.000000 0.000000 0.000000 -11.945901 -2.011188 -0.996434 3.717623 -0.535466 -4.055199 -6.092409 -18.611450 36.086531 0.000000 0.000000 0.000000 5.266502 5.953646 -39.251276 1.302474 -1.056198 8.519029 -3.942575 1.744069 42.172731 10.065530 -8.259955 -8.625912 0.000000 0.000000 0.000000 7.522999 -4.423226 1.478082 -55.004113 -8.356972 -8.692889 11.441281 -46.551386 -2.610653 0.000000 0.000000 0.000000 -10.199879 -4.616456 -2.094567 46.207156 -1.207653 -8.404451 4.272691 33.783577 2.125454 0.000000 0.000000 0.000000 
-0.076203 0.092873 -0.048605 1.853032 -0.795893 -85.607235 16.368230 2.852818 -1.018226 -7.839054 0.977861 -0.930616 -0.732993 10.661188 34.119153 0.000000 0.000000 0.000000 -11.676825 -2.010966 -1.070271 2.978501 -0.473074 -4.370298 -5.790850 -18.191820 36.087695 0.000000 0.000000 0.000000 5.533898 6.154990 -39.562305 0.242106 -0.471761 8.545039 -3.643088 2.145950 43.232311 9.708240 -8.540337 -6.152664 0.000000 0.000000 0.000000 5.000723 -5.731345 2.040525 -53.535746 -8.412764 -9.035172 3.447242 -41.065845 0.366939 0.000000 0.000000 0.000000 -8.375927 -3.987626 -1.987973 44.185811 -3.870465 -9.035964 12.007422 32.933134 4.093158 0.000000 0.000000 0.000000 
-0.076597 0.086875 -0.049145 1.477900 -0.201364 -86.163758 15.670205 2.732434 -1.149063 -8.958536 1.099052 -0.820072 1.160095 12.704562 34.888468 0.000000 0.000000 0.000000 -12.361221 -2.209397 -0.402770 3.737204 -0.560902 -5.245722 -5.858029 -18.255196 38.184309 0.000000 0.000000 0.000000 4.954269 5.505128 -38.219275 -0.081918 -0.295008 8.100120 -3.357868 2.228502 43.522948 9.520975 -9.058378 -3.602489 0.000000 0.000000 0.000000 0.981145 -5.662390 2.140357 -51.801391 -8.328797 -9.181740 -0.934432 -35.757071 1.668512 0.000000 0.000000 0.000000 -7.560087 -3.971433 -2.016088 43.794587 -6.099580 -9.749252 19.305266 31.680952 5.877433 0.000000 0.000000 0.000000 
-0.077600 0.081104 -0.050278 1.486531 0.158581 -86.134998 15.347607 2.698860 -2.420742 -8.509902 1.058590 -0.475446 -0.794412 11.360489 38.288237 0.000000 0.000000 0.000000 -12.222942 -2.162857 -0.940985 3.622298 -0.550338 -5.609737 -6.307386 -18.674745 40.416077 0.000000 0.000000 0.000000 5.188105 5.593759 -38.638586 -0.880131 0.095339 9.419340 -2.363069 2.662382 43.502478 9.684027 -9.139314 -3.553501 0.000000 0.000000 0.000000 0.179864 -7.081460 2.669981 -54.462966 -9.046874 -9.373121 -2.706669 -31.725498 1.967605 0.000000 0.000000 0.000000 -6.980227 -3.492001 -1.842271 44.666540 -8.587184 -10.660064 22.709268 32.539466 7.089454 0.000000 0.000000 0.000000 
-0.079535 0.076321 -0.052578 0.445290 1.326399 -85.734756 13.805690 2.401393 -4.521165 -7.712495 1.029947 2.283012 -1.639411 10.488651 37.414321 0.000000 0.000000 0.000000 -13.259654 -2.342085 -2.002329 5.173072 -0.689444 -3.998442 -7.459085 -19.539375 42.029164 0.000000 0.000000 0.000000 4.521049 4.742371 -38.930664 -2.287599 0.706553 13.879938 -1.270493 2.605921 40.300194 9.072723 -11.539459 6.862966 0.000000 0.000000 0.000000 -4.012078 -10.593766 4.190516 -51.244946 -9.219465 -8.625466 0.375658 -28.842661 0.960139 0.000000 0.000000 0.000000 1.085779 -3.561521 -1.504169 38.724361 -9.449154 -9.784741 24.100459 33.233376 7.625958 0.000000 0.000000 0.000000 
-0.082632 0.070542 -0.056783 2.400079 -0.702732 -85.967202 15.478870 2.835936 -3.491721 -6.426681 0.867741 0.421281 -4.439277 8.144811 40.139100 0.000000 0.000000 0.000000 -12.197208 -2.061369 -3.539469 7.758850 -0.950591 -2.637745 -8.002689 -20.271613 41.602855 0.000000 0.000000 0.000000 6.776861 7.062528 -39.576971 0.715037 -1.160237 15.298559 -5.571817 1.031240 44.106543 6.155160 -11.690492 17.098664 0.000000 0.000000 0.000000 -11.442725 -12.268035 5.970291 -44.647450 -7.646189 -8.837025 -3.521750 -32.040576 2.237627 0.000000 0.000000 0.000000 0.849542 -0.635045 -0.411036 43.049426 -9.276453 -11.672113 18.908148 33.769102 6.054700 0.000000 0.000000 0.000000 
-0.086380 0.074905 -0.062066 1.416173 0.853024 -85.195121 12.027385 2.132210 -10.935598 -3.442727 0.256184 12.303557 -8.864996 3.947547 40.319738 0.000000 0.000000 0.000000 -15.329624 -2.743939 -9.605577 11.411951 -1.939194 9.189539 -5.831841 -18.001293 40.781176 0.000000 0.000000 0.000000 5.359631 5.101364 -36.107083 0.742126 -1.246549 16.284982 -5.088338 1.809411 38.275946 6.711437 -12.427783 18.453723 0.000000 0.000000 0.000000 -16.631482 -14.766380 7.688626 -41.889409 -7.977317 -7.597585 0.195421 -25.335695 0.971339 0.000000 0.000000 0.000000 6.812007 -1.607396 -0.531399 38.324853 -7.920728 -9.722715 12.986494 35.220218 4.842275 0.000000 0.000000 0.000000 
